[{"OBJECT_NAME":"MONITOR-3 (RS58S)","OBJECT_ID":"2023-091Q","EPOCH":"2026-03-09T23:24:02.583360","MEAN_MOTION":15.25747617,"ECCENTRICITY":0.0013676,"INCLINATION":97.5199,"RA_OF_ASC_NODE":131.7909,"ARG_OF_PERICENTER":91.0881,"MEAN_ANOMALY":269.1924,"EPHEMERIS_TYPE":0,"CLASSIFICATION_TYPE":"U","NORAD_CAT_ID":57180,"ELEMENT_SET_NO":999,"REV_AT_EPOCH":14915,"BSTAR":0.00054974842,"MEAN_MOTION_DOT":0.00014004,"MEAN_MOTION_DDOT":0},{"OBJECT_NAME":"STARLINK-35219","OBJECT_ID":"2025-259X","EPOCH":"2026-03-09T22:20:03.897888","MEAN_MOTION":15.27597707,"ECCENTRICITY":0.00013388,"INCLINATION":43.0001,"RA_OF_ASC_NODE":273.3686,"ARG_OF_PERICENTER":262.6783,"MEAN_ANOMALY":97.3916,"EPHEMERIS_TYPE":0,"CLASSIFICATION_TYPE":"U","NORAD_CAT_ID":66443,"ELEMENT_SET_NO":999,"REV_AT_EPOCH":1941,"BSTAR":0.00093406407,"MEAN_MOTION_DOT":0.00025544,"MEAN_MOTION_DDOT":0}]
